STARLETTE               
1 07646U 75010A   15355.13689535 -.00000150  00000-0 -44829-5 0  9995
2 07646  49.8238 105.6750 0205689   7.6165 352.7774 13.82299104 64596
LAGEOS 1                
1 08820U 76039A   15354.83249425  .00000004  00000-0  00000+0 0  9991
2 08820 109.8555 306.9014 0043930  42.0257 128.8932  6.38664813668878
AJISAI (EGS)            
1 16908U 86061A   15354.57192422 -.00000097  00000-0  20951-5 0  9994
2 16908  50.0106  49.1496 0011495 148.0415  17.9181 12.44482367  3623
LAGEOS 2                
1 22195U 92070B   15354.44475029 -.00000009  00000-0  00000+0 0  9999
2 22195  52.6376 168.3509 0137966 311.7253  34.4244  6.47294533547567
STELLA                  
1 22824U 93061B   15354.54787633 -.00000028  00000-0  66645-5 0  9991
2 22824  98.7438 298.1065 0006275 181.4979 284.1144 14.27359745158318
GRACE-1                 
1 27391U 02012A   15355.55082881  .00023571  00000-0  24041-3 0  9995
2 27391  88.9965  39.4543 0010184  98.2306  34.3856 15.64896403772055
GRACE-2                 
1 27392U 02012B   15355.14325210  .00021604  00000-0  22057-3 0  9997
2 27392  88.9973  39.5784 0010172  98.7924 261.4498 15.64871576771981
LARES                   
1 38077U 12006A   15355.40010862 -.00000022  00000-0  10000-3 0  9993
2 38077  69.4904 355.5779 0006842  52.4230 307.7415 12.54930620176548
